183P/Korlevic-Juric,e,18.7949,4.5181,166.4552,4.543147,0.1017815,0.13587118,133.2128,07/05.0/2021,2000,g 12.5,2.0
# From MPEC 2020-W26
184P/Lovas,e,4.5733,173.2553,186.4371,3.792732,0.1334368,0.55091193,6.9135,12/17.0/2020,2000,g 13.5,4.0
# From MPEC 2020-W26
184P/Lovas,e,4.5733,173.2553,186.4371,3.792732,0.1334368,0.55091193,6.9135,12/17.0/2020,2000,g 13.5,4.0
# From MPC109593
185P/Petriew,e,13.9942,214.0992,181.9185,3.101699,0.1804283,0.69893342,2.5856,02/11.0/2018,2000,g 15.0,4.0
# From MPC109593
185P/Petriew,e,13.9942,214.0992,181.9185,3.101699,0.1804283,0.69893342,2.5856,02/11.0/2018,2000,g 15.0,4.0
# From MPEC 2021-W31
186P/Garradd,e,28.8038,326.5910,272.1636,4.883383,0.0913320,0.12236984,99.7539,01/21.0/2022,2000,g  7.5,4.0
# From MPEC 2021-W31
186P/Garradd,e,28.8038,326.5910,272.1636,4.883383,0.0913320,0.12236984,99.7539,01/21.0/2022,2000,g  7.5,4.0
# From MPEC 2020-SI8
187P/LINEAR,e,13.6346,109.9233,132.0166,4.571304,0.1008426,0.15220568,95.3256,12/17.0/2020,2000,g  9.0,4.0
# From MPEC 2020-SI8
187P/LINEAR,e,13.6346,109.9233,132.0166,4.571304,0.1008426,0.15220568,95.3256,12/17.0/2020,2000,g  9.0,4.0
# From MPC106349
188P/LINEAR-Mueller,e,10.5114,358.9813,26.7709,4.383745,0.1073832,0.41485195,359.8884,02/16.0/2017,2000,g 11.5,4.0
# From MPC106349
188P/LINEAR-Mueller,e,10.5114,358.9813,26.7709,4.383745,0.1073832,0.41485195,359.8884,02/16.0/2017,2000,g 11.5,4.0
# From MPC106349
189P/NEAT,e,20.0662,281.7520,16.2142,2.946738,0.1948461,0.58823462,357.8693,07/26.0/2017,2000,g 19.0,4.0
# From MPC106349
189P/NEAT,e,20.0662,281.7520,16.2142,2.946738,0.1948461,0.58823462,357.8693,07/26.0/2017,2000,g 19.0,4.0
# From MPEC 2020-K19
190P/Mueller,e,2.1741,335.5722,50.2865,4.235951,0.1130518,0.52073046,171.2343,05/31.0/2020,2000,g 13.0,4.0
# From MPEC 2020-K19
190P/Mueller,e,2.1741,335.5722,50.2865,4.235951,0.1130518,0.52073046,171.2343,05/31.0/2020,2000,g 13.0,4.0
# From MPEC 2022-A21
191P/McNaught,e,8.8421,98.2329,284.0449,3.635548,0.1421835,0.38593241,43.6191,01/21.0/2022,2000,g 13.0,4.0
# From MPEC 2022-A21
191P/McNaught,e,8.8421,98.2329,284.0449,3.635548,0.1421835,0.38593241,43.6191,01/21.0/2022,2000,g 13.0,4.0
# From MPC 75724
192P/Shoemaker-Levy,e,24.5612,51.6501,312.8443,6.448747,0.0601854,0.77358882,359.3177,12/06.0/2007,2000,g 15.0,4.0
# From MPC 75724
192P/Shoemaker-Levy,e,24.5612,51.6501,312.8443,6.448747,0.0601854,0.77358882,359.3177,12/06.0/2007,2000,g 15.0,4.0
# From MPEC 2022-A21
193P/LINEAR-NEAT,e,10.6885,335.1742,8.0814,3.577102,0.1456824,0.39393179,21.6769,01/21.0/2022,2000,g 14.0,4.0
# From MPEC 2022-A21
193P/LINEAR-NEAT,e,10.6885,335.1742,8.0814,3.577102,0.1456824,0.39393179,21.6769,01/21.0/2022,2000,g 14.0,4.0
# From MPC 98566
194P/LINEAR,e,11.1380,351.9941,130.7100,3.999111,0.1232420,0.57547474,358.8368,02/22.0/2016,2000,g 16.0,4.0
# From MPC 98566
194P/LINEAR,e,11.1380,351.9941,130.7100,3.999111,0.1232420,0.57547474,358.8368,02/22.0/2016,2000,g 16.0,4.0
# From MPEC 2021-S45
195P/Hill,e,36.3346,243.1202,249.3133,6.503180,0.0594313,0.31336747,271.7812,07/05.0/2021,2000,g  8.5,4.0
# From MPEC 2021-S45
195P/Hill,e,36.3346,243.1202,249.3133,6.503180,0.0594313,0.31336747,271.7812,07/05.0/2021,2000,g  8.5,4.0
# From MPC 92985
196P/Tichy,e,19.3785,24.3421,11.7143,3.776005,0.1343245,0.43382912,2.2634,02/24.0/2008,2000,g 13.5,4.0
# From MPC 92985
196P/Tichy,e,19.3785,24.3421,11.7143,3.776005,0.1343245,0.43382912,2.2634,02/24.0/2008,2000,g 13.5,4.0
# From MPC 94676
197P/LINEAR,e,25.5424,66.3900,188.7408,2.866908,0.2030409,0.62975457,356.7812,03/09.0/2013,2000,g 16.5,2.0
# From MPC 94676
197P/LINEAR,e,25.5424,66.3900,188.7408,2.866908,0.2030409,0.62975457,356.7812,03/09.0/2013,2000,g 16.5,2.0
# From NK 1596
198P/ODAS,e,1.3484,358.7264,69.0523,3.583434,0.1452964,0.44722061,358.0735,04/20.0/2005,2000,g  9.0,4.0
# From NK 1596
198P/ODAS,e,1.3484,358.7264,69.0523,3.583434,0.1452964,0.44722061,358.0735,04/20.0/2005,2000,g  9.0,4.0
# From MPC 75725
199P/Shoemaker,e,24.7627,92.9478,191.9273,5.966819,0.0676223,0.50804007,359.2654,03/30.0/2009,2000,g 10.0,4.0
# From MPC 75725
199P/Shoemaker,e,24.7627,92.9478,191.9273,5.966819,0.0676223,0.50804007,359.2654,03/30.0/2009,2000,g 10.0,4.0
# From MPEC 2021-F20
200P/Larsen,e,12.1023,234.7997,134.0466,4.939445,0.0897815,0.33240329,45.5263,12/17.0/2020,2000,g  9.0,4.0
# From MPEC 2021-F20
200P/Larsen,e,12.1023,234.7997,134.0466,4.939445,0.0897815,0.33240329,45.5263,12/17.0/2020,2000,g  9.0,4.0
# From MPC 93588
201P/LONEOS,e,7.0326,35.3031,24.9618,3.463137,0.1529324,0.61162233,359.5779,08/02.0/2008,2000,g 14.0,4.0
# From MPC 93588
201P/LONEOS,e,7.0326,35.3031,24.9618,3.463137,0.1529324,0.61162233,359.5779,08/02.0/2008,2000,g 14.0,4.0
# From MPEC 2021-N06
202P/Scotti,e,2.0791,178.2078,277.3012,4.055455,0.1206826,0.26724286,232.8831,07/05.0/2021,2000,g 13.5,4.0
# From MPEC 2021-N06
202P/Scotti,e,2.0791,178.2078,277.3012,4.055455,0.1206826,0.26724286,232.8831,07/05.0/2021,2000,g 13.5,4.0
# From MPEC 2021-S45
203P/Korlevic,e,2.9729,290.3432,154.8104,4.671012,0.0976310,0.31515943,47.5723,07/05.0/2021,2000,g 14.5,2.0
# From MPEC 2021-F20
203P/Korlevic,e,2.9740,290.1469,154.9896,4.667668,0.0977359,0.31510899,359.8448,04/09.0/2030,2000,g 12.7,4.0
# From MPC 98566
204P/LINEAR-NEAT,e,6.5887,109.0690,355.0821,3.655381,0.1410279,0.47212182,358.9283,12/04.0/2015,2000,g 14.0,4.0
# From MPC 98566
204P/LINEAR-NEAT,e,6.5887,109.0690,355.0821,3.655381,0.1410279,0.47212182,358.9283,12/04.0/2015,2000,g 14.0,4.0
# From MPEC 2021-W31
205P/Giacobini,e,15.3056,179.6021,154.1939,3.543730,0.1477451,0.56822037,1.0759,01/21.0/2022,2000,g 13.0,4.0
# From MPEC 2021-W31
205P/Giacobini,e,15.3056,179.6021,154.1939,3.543730,0.1477451,0.56822037,1.0759,01/21.0/2022,2000,g 13.0,4.0
# From MPC 75725
206P/Barnard-Boattini,e,32.9288,204.1353,181.4256,3.239212,0.1690616,0.64646156,359.3080,10/21.0/2008,2000,g 19.0,4.0
# From MPC 75725
206P/Barnard-Boattini,e,32.9288,204.1353,181.4256,3.239212,0.1690616,0.64646156,359.3080,10/21.0/2008,2000,g 19.0,4.0
# From MPC 75725
207P/NEAT,e,10.1500,200.6745,271.1732,3.887655,0.1285797,0.75714120,357.9099,10/21.0/2008,2000,g 16.0,4.0
# From MPC 75725
207P/NEAT,e,10.1500,200.6745,271.1732,3.887655,0.1285797,0.75714120,357.9099,10/21.0/2008,2000,g 16.0,4.0
# From MPEC 2020-W26
208P/McMillan,e,4.4124,36.3346,310.6913,4.038134,0.1214599,0.37380132,1.7056,09/07.0/2024,2000,g 12.5,4.0
# From MPEC 2020-W26
208P/McMillan,e,4.4124,36.3346,310.6913,4.038134,0.1214599,0.37380132,1.7056,09/07.0/2024,2000,g 12.5,4.0
# From MPC 90771
209P/LINEAR,e,21.2434,62.8247,152.3930,2.960935,0.1934464,0.67258426,3.2259,05/23.0/2014,2000,g 17.0,2.0
# From MPC 90771
209P/LINEAR,e,21.2434,62.8247,152.3930,2.960935,0.1934464,0.67258426,3.2259,05/23.0/2014,2000,g 17.0,2.0
# From MPC105242
210P/Christensen,e,10.2407,93.8280,345.8276,3.171801,0.1744798,0.83248442,358.9100,08/11.0/2014,2000,g 13.5,4.0
# From MPC105242
210P/Christensen,e,10.2407,93.8280,345.8276,3.171801,0.1744798,0.83248442,358.9100,08/11.0/2014,2000,g 13.5,4.0
# From MPEC 2021-WD8
211P/Hill,e,18.9213,117.1316,4.2765,3.545965,0.1476054,0.34356419,322.1237,01/21.0/2022,2000,g 12.5,4.0
# From MPEC 2021-WD8
211P/Hill,e,18.9213,117.1316,4.2765,3.545965,0.1476054,0.34356419,322.1237,01/21.0/2022,2000,g 12.5,4.0
# From MPEC 2021-F20
212P/NEAT,e,22.4050,98.5088,14.1004,3.882061,0.1288578,0.58944628,201.9556,12/17.0/2020,2000,g 17.0,2.0
# From MPEC 2021-F20
212P/NEAT,e,22.4050,98.5088,14.1004,3.882061,0.1288578,0.58944628,201.9556,12/17.0/2020,2000,g 17.0,2.0
# From MPC114608
213P/Van Ness,e,10.3783,311.3282,5.5490,3.347228,0.1609445,0.40745167,3.1578,10/14.0/2017,2000,g 10.5,4.0
# From MPC114608
213P/Van Ness,e,10.3783,311.3282,5.5490,3.347228,0.1609445,0.40745167,3.1578,10/14.0/2017,2000,g 10.5,4.0
# From MPC 92986
214P/LINEAR,e,15.2134,348.2591,190.2682,3.606101,0.1439286,0.48871756,0.4873,01/09.0/2009,2000,g 13.0,4.0
# From MPC 92986
214P/LINEAR,e,15.2134,348.2591,190.2682,3.606101,0.1439286,0.48871756,0.4873,01/09.0/2009,2000,g 13.0,4.0
# From MPEC 2022-A21
215P/NEAT,e,10.5795,56.6853,262.2696,4.329050,0.1094247,0.16663779,86.8582,01/21.0/2022,2000,g 11.0,4.0
# From MPEC 2022-A21
215P/NEAT,e,10.5795,56.6853,262.2696,4.329050,0.1094247,0.16663779,86.8582,01/21.0/2022,2000,g 11.0,4.0
# From MPC100284
216P/LINEAR,e,9.0483,359.8730,151.5960,3.876459,0.1291372,0.44543366,357.5254,05/12.0/2016,2000,g 13.0,4.0
# From MPC100284
216P/LINEAR,e,9.0483,359.8730,151.5960,3.876459,0.1291372,0.44543366,357.5254,05/12.0/2016,2000,g 13.0,4.0
# From MPEC 2021-N06
217P/LINEAR,e,12.8643,125.4771,246.8463,3.950599,0.1255191,0.68879072,181.8021,07/05.0/2021,2000,g 12.0,4.0
# From MPEC 2021-N06
217P/LINEAR,e,12.8643,125.4771,246.8463,3.950599,0.1255191,0.68879072,181.8021,07/05.0/2021,2000,g 12.0,4.0
# From MPEC 2020-K19
218P/LINEAR,e,2.7255,175.9756,59.7863,3.093764,0.1811229,0.62185083,358.9534,09/28.0/2020,2000,g 16.0,4.0
# From MPEC 2020-K19
218P/LINEAR,e,2.7255,175.9756,59.7863,3.093764,0.1811229,0.62185083,358.9534,09/28.0/2020,2000,g 16.0,4.0
# From MPC100284
219P/LINEAR,e,11.5286,231.0251,107.4100,3.652719,0.1411821,0.35247335,359.3478,02/16.0/2017,2000,g 11.0,4.0
# From MPC100284
219P/LINEAR,e,11.5286,231.0251,107.4100,3.652719,0.1411821,0.35247335,359.3478,02/16.0/2017,2000,g 11.0,4.0
# From MPEC 2021-BE3
220P/McNaught,e,8.1287,150.1023,180.5311,3.116118,0.1791774,0.50183126,1.1416,12/17.0/2020,2000,g 15.0,4.0
# From MPEC 2021-BE3
220P/McNaught,e,8.1287,150.1023,180.5311,3.116118,0.1791774,0.50183126,1.1416,12/17.0/2020,2000,g 15.0,4.0
# From MPEC 2021-J28
221P/LINEAR,e,11.4277,229.7030,40.1169,3.455366,0.1534486,0.49263556,359.0681,12/12.0/2021,2000,g 14.5,4.0
# From MPEC 2021-J28
221P/LINEAR,e,11.4277,229.7030,40.1169,3.455366,0.1534486,0.49263556,359.0681,12/12.0/2021,2000,g 14.5,4.0
# From MPC 92277
222P/LINEAR,e,5.1369,7.1266,345.4478,2.862101,0.2035526,0.72597381,359.4828,07/02.0/2014,2000,g 20.0,4.0
# From MPC 92277
222P/LINEAR,e,5.1369,7.1266,345.4478,2.862101,0.2035526,0.72597381,359.4828,07/02.0/2014,2000,g 20.0,4.0
# From MPEC 2021-S45
